{"type": "FeatureCollection", "features": [ {"type": "Feature", "properties": {"norad_id": 47059, "name": "COSMOS 2251 DEB", "group": "cosmos-2251-debris", "lat": 59.00138657992685, "lon": 46.48839568367424, "alt_km": 521.609918427067, "timestamp": "2025-12-03T06:58:43.640664+00:00", "meta": {"OBJECT_NAME": "COSMOS 2251 DEB", "OBJECT_ID": "1993-036BXP", "EPOCH": "2025-11-30T02:15:08.813664", "MEAN_MOTION": 15.10829083, "ECCENTRICITY": 0.00120344, "INCLINATION": 73.9823, "RA_OF_ASC_NODE": 261.6801, "ARG_OF_PERICENTER": 69.4658, "MEAN_ANOMALY": 304.3449, "EPHEMERIS_TYPE": 0, "CLASSIFICATION_TYPE": "U", "NORAD_CAT_ID": 47059, "ELEMENT_SET_NO": 999, "REV_AT_EPOCH": 8114, "BSTAR": 0.003761596, "MEAN_MOTION_DOT": 0.00063166, "MEAN_MOTION_DDOT": 0}, "tle": {"line1": "1 47059U 93036BXP 25334.09385201  .00063166  00000+0  37616-2 0  9997", "line2": "2 47059  73.9823 261.6801 0012034  69.4658 304.3449 15.10829083 81149"}}, "geometry": {"type": "Point", "coordinates": [46.48839568367424, 59.00138657992685]}}, {"type": "Feature", "properties": {"norad_id": 47062, "name": "COSMOS 2251 DEB", "group": "cosmos-2251-debris", "lat": -56.64975748274567, "lon": -60.54738298691265, "alt_km": 773.0782419643556, "timestamp": "2025-12-03T06:58:43.640674+00:00", "meta": {"OBJECT_NAME": "COSMOS 2251 DEB", "OBJECT_ID": "1993-036BXS", "EPOCH": "2025-11-30T14:51:43.416000", "MEAN_MOTION": 13.71861812, "ECCENTRICITY": 0.0323451, "INCLINATION": 74.0848, "RA_OF_ASC_NODE": 98.1641, "ARG_OF_PERICENTER": 226.4501, "MEAN_ANOMALY": 143.6726, "EPHEMERIS_TYPE": 0, "CLASSIFICATION_TYPE": "U", "NORAD_CAT_ID": 47062, "ELEMENT_SET_NO": 999, "REV_AT_EPOCH": 55436, "BSTAR": 0.002328, "MEAN_MOTION_DOT": 3.04e-05, "MEAN_MOTION_DDOT": 0}, "tle": {"line1": "1 47062U 93036BXS 25334.61925250  .00003040  00000+0  23280-2 0  9990", "line2": "2 47062  74.0848  98.1641 0323451 226.4501 143.6726 13.71861812554369"}}, "geometry": {"type": "Point", "coordinates": [-60.54738298691265, -56.64975748274567]}}, {"type": "Feature", "properties": {"norad_id": 47068, "name": "COSMOS 2251 DEB", "group": "cosmos-2251-debris", "lat": 57.35148673621329, "lon": 14.755794214472294, "alt_km": 722.7875241130205, "timestamp": "2025-12-03T06:58:43.640684+00:00", "meta": {"OBJECT_NAME": "COSMOS 2251 DEB", "OBJECT_ID": "1993-036BXY", "EPOCH": "2025-12-02T10:36:17.215488", "MEAN_MOTION": 14.53031403, "ECCENTRICITY": 0.00184732, "INCLINATION": 74.0249, "RA_OF_ASC_NODE": 222.9156, "ARG_OF_PERICENTER": 310.4244, "MEAN_ANOMALY": 49.5306, "EPHEMERIS_TYPE": 0, "CLASSIFICATION_TYPE": "U", "NORAD_CAT_ID": 47068, "ELEMENT_SET_NO": 999, "REV_AT_EPOCH": 61607, "BSTAR": 0.0011587159, "MEAN_MOTION_DOT": 4.77e-05, "MEAN_MOTION_DDOT": 0}, "tle": {"line1": "1 47068U 93036BXY 25336.44186592  .00004770  00000+0  11587-2 0  9995", "line2": "2 47068  74.0249 222.9156 0018473 310.4244  49.5306 14.53031403616072"}}, "geometry": {"type": "Point", "coordinates": [14.755794214472294, 57.35148673621329]}}, {"type": "Feature", "properties": {"norad_id": 47073, "name": "COSMOS 2251 DEB", "group": "cosmos-2251-debris", "lat": 50.87732842550199, "lon": 17.744527270028616, "alt_km": 951.2425640905385, "timestamp": "2025-12-03T06:58:43.640695+00:00", "meta": {"OBJECT_NAME": "COSMOS 2251 DEB", "OBJECT_ID": "1993-036BYD", "EPOCH": "2025-11-28T23:48:38.837952", "MEAN_MOTION": 14.04684181, "ECCENTRICITY": 0.01626495, "INCLINATION": 74.0833, "RA_OF_ASC_NODE": 225.7586, "ARG_OF_PERICENTER": 267.1836, "MEAN_ANOMALY": 91.0675, "EPHEMERIS_TYPE": 0, "CLASSIFICATION_TYPE": "U", "NORAD_CAT_ID": 47073, "ELEMENT_SET_NO": 999, "REV_AT_EPOCH": 60168, "BSTAR": 0.0003803633, "MEAN_MOTION_DOT": 6.6e-06, "MEAN_MOTION_DDOT": 0}, "tle": {"line1": "1 47073U 93036BYD 25332.99211618  .00000660  00000+0  38036-3 0  9998", "line2": "2 47073  74.0833 225.7586 0162649 267.1836  91.0675 14.04684181601680"}}, "geometry": {"type": "Point", "coordinates": [17.744527270028616, 50.87732842550199]}}, {"type": "Feature", "properties": {"norad_id": 47074, "name": "COSMOS 2251 DEB", "group": "cosmos-2251-debris", "lat": -44.42516747233123, "lon": -50.22811647140435, "alt_km": 704.5196031228925, "timestamp": "2025-12-03T06:58:43.640706+00:00", "meta": {"OBJECT_NAME": "COSMOS 2251 DEB", "OBJECT_ID": "1993-036BYE", "EPOCH": "2025-11-16T21:16:13.914624", "MEAN_MOTION": 14.35315626, "ECCENTRICITY": 0.01424183, "INCLINATION": 74.0922, "RA_OF_ASC_NODE": 355.9879, "ARG_OF_PERICENTER": 30.5468, "MEAN_ANOMALY": 146.7456, "EPHEMERIS_TYPE": 0, "CLASSIFICATION_TYPE": "U", "NORAD_CAT_ID": 47074, "ELEMENT_SET_NO": 999, "REV_AT_EPOCH": 2311, "BSTAR": 0.002262034, "MEAN_MOTION_DOT": 7.254e-05, "MEAN_MOTION_DDOT": 0}, "tle": {"line1": "1 47074U 93036BYE 25320.88627216  .00007254  00000+0  22620-2 0  9996", "line2": "2 47074  74.0922 355.9879 0142418  30.5468 146.7456 14.35315626 23116"}}, "geometry": {"type": "Point", "coordinates": [-50.22811647140435, -44.42516747233123]}}, {"type": "Feature", "properties": {"norad_id": 47116, "name": "COSMOS 2251 DEB", "group": "cosmos-2251-debris", "lat": -21.63561024597458, "lon": 86.39999383200282, "alt_km": 593.7032678733676, "timestamp": "2025-12-03T06:58:43.640716+00:00", "meta": {"OBJECT_NAME": "COSMOS 2251 DEB", "OBJECT_ID": "1993-036BYJ", "EPOCH": "2025-11-28T02:40:22.126944", "MEAN_MOTION": 14.97052334, "ECCENTRICITY": 0.00224176, "INCLINATION": 74.0247, "RA_OF_ASC_NODE": 270.3586, "ARG_OF_PERICENTER": 5.4926, "MEAN_ANOMALY": 12.2387, "EPHEMERIS_TYPE": 0, "CLASSIFICATION_TYPE": "U", "NORAD_CAT_ID": 47116, "ELEMENT_SET_NO": 999, "REV_AT_EPOCH": 59292, "BSTAR": 0.0024991708, "MEAN_MOTION_DOT": 0.00029033, "MEAN_MOTION_DDOT": 0}, "tle": {"line1": "1 47116U 93036BYJ 25332.11136721  .00029033  00000+0  24992-2 0  9991", "line2": "2 47116  74.0247 270.3586 0022417   5.4926  12.2387 14.97052334592926"}}, "geometry": {"type": "Point", "coordinates": [86.39999383200282, -21.63561024597458]}}, {"type": "Feature", "properties": {"norad_id": 53093, "name": "COSMOS 2251 DEB", "group": "cosmos-2251-debris", "lat": 47.09344468216342, "lon": 121.03133840989857, "alt_km": 748.4715830680807, "timestamp": "2025-12-03T06:58:43.640726+00:00", "meta": {"OBJECT_NAME": "COSMOS 2251 DEB", "OBJECT_ID": "1993-036BYP", "EPOCH": "2025-12-02T08:43:46.529472", "MEAN_MOTION": 14.41780051, "ECCENTRICITY": 0.00186094, "INCLINATION": 74.0358, "RA_OF_ASC_NODE": 320.6859, "ARG_OF_PERICENTER": 40.4715, "MEAN_ANOMALY": 319.7821, "EPHEMERIS_TYPE": 0, "CLASSIFICATION_TYPE": "U", "NORAD_CAT_ID": 53093, "ELEMENT_SET_NO": 999, "REV_AT_EPOCH": 17576, "BSTAR": 0.0011428944, "MEAN_MOTION_DOT": 3.716e-05, "MEAN_MOTION_DDOT": 0}, "tle": {"line1": "1 53093U 93036BYP 25336.36373298  .00003716  00000+0  11429-2 0  9996", "line2": "2 53093  74.0358 320.6859 0018609  40.4715 319.7821 14.41780051175765"}}, "geometry": {"type": "Point", "coordinates": [121.03133840989857, 47.09344468216342]}}]}